STARLINK-36675          
1 67663U 26022R   26059.62552556  .00127764  00000+0  84375-3 0  9994
2 67663  97.2827  93.1794 0002128 157.2752 202.8608 15.75215002  4121
STARLINK-36404          
1 67664U 26022S   26059.62235406  .00213716  00000+0  13977-2 0  9999
2 67664  97.2834  93.1823 0001426 121.6529 238.4875 15.75197375  4123
STARLINK-36399          
1 67665U 26022T   26059.62164468  .00247957  00000+0  16193-2 0  9996
2 67665  97.2837  93.1843 0001621  92.3542 267.7909 15.75135334  4125
STARLINK-36365          
1 67666U 26022U   26059.62024214  .00209224  00000+0  13696-2 0  9991
2 67666  97.2824  93.1862 0002831 100.2120 259.9464 15.75186796  4125
STARLINK-36622          
1 67667U 26022V   26059.61848122  .00219763  00000+0  14367-2 0  9998
2 67667  97.2828  93.1876 0003590  83.1079 277.0594 15.75185334  4122
STARLINK-36625          
1 67668U 26022W   26059.61706752  .00238672  00000+0  15553-2 0  9999
2 67668  97.2814  93.1891 0003063  88.2175 271.9441 15.75208225  4122
STARLINK-36639          
1 67669U 26022X   26059.61530484  .00175932  00000+0  11556-2 0  9995
2 67669  97.2838  93.1921 0003268  85.6884 274.4754 15.75198888  4126
STARLINK-36596          
1 67670U 26022Y   26059.74058872  .00272358  00000+0  17652-2 0  9990
2 67670  97.2828  93.3287 0002133  67.8132 292.3359 15.75243022  4145
STARLINK-36297          
1 67671U 26022Z   26059.61142341  .00242190  00000+0  15783-2 0  9996
2 67671  97.2813  93.1967 0003434  64.8811 295.2810 15.75197332  4123
STARLINK-36616          
1 67672U 26022AA  26059.80341618  .00099736  00000+0  66298-3 0  9990
2 67672  97.2847  93.3959 0001732  69.4996 290.6455 15.75146935  4158
COSMOS 2600             
1 67674U 26023A   26059.29522707  .00071571  00000+0  32746-3 0  9994
2 67674  96.6452 135.2352 0003248  47.0444 313.1099 15.83528492  3562
2026-023B               
1 67675U 26023B   26059.84962054  .00013833  00000+0  59176-3 0  9992
2 67675  96.6379 133.8220 0018951 161.8697 198.3221 15.22746973  3515
