CCSDS_OMM_VERS = 2.0
CREATION_DATE  = 
ORIGINATOR     = 

OBJECT_NAME    = STARLINK-36675
OBJECT_ID      = 2026-022R
CENTER_NAME    = EARTH
REF_FRAME      = TEME
TIME_SYSTEM    = UTC
MEAN_ELEMENT_THEORY = SGP/SGP4

EPOCH          = 2026-02-28T15:00:45.408384
MEAN_MOTION    = 15.75215002
ECCENTRICITY   = .0002128
INCLINATION    = 97.2827
RA_OF_ASC_NODE = 93.1794
ARG_OF_PERICENTER = 157.2752
MEAN_ANOMALY   = 202.8608

EPHEMERIS_TYPE = 0
CLASSIFICATION_TYPE = U
NORAD_CAT_ID   = 67663
ELEMENT_SET_NO = 999
REV_AT_EPOCH   = 412
BSTAR          = .84375E-3
MEAN_MOTION_DOT = .127764E-2
MEAN_MOTION_DDOT = 0

CCSDS_OMM_VERS = 2.0
CREATION_DATE  = 
ORIGINATOR     = 

OBJECT_NAME    = STARLINK-36404
OBJECT_ID      = 2026-022S
CENTER_NAME    = EARTH
REF_FRAME      = TEME
TIME_SYSTEM    = UTC
MEAN_ELEMENT_THEORY = SGP/SGP4

EPOCH          = 2026-02-28T14:56:11.390784
MEAN_MOTION    = 15.75197375
ECCENTRICITY   = .0001426
INCLINATION    = 97.2834
RA_OF_ASC_NODE = 93.1823
ARG_OF_PERICENTER = 121.6529
MEAN_ANOMALY   = 238.4875

EPHEMERIS_TYPE = 0
CLASSIFICATION_TYPE = U
NORAD_CAT_ID   = 67664
ELEMENT_SET_NO = 999
REV_AT_EPOCH   = 412
BSTAR          = .13977E-2
MEAN_MOTION_DOT = .213716E-2
MEAN_MOTION_DDOT = 0

CCSDS_OMM_VERS = 2.0
CREATION_DATE  = 
ORIGINATOR     = 

OBJECT_NAME    = STARLINK-36399
OBJECT_ID      = 2026-022T
CENTER_NAME    = EARTH
REF_FRAME      = TEME
TIME_SYSTEM    = UTC
MEAN_ELEMENT_THEORY = SGP/SGP4

EPOCH          = 2026-02-28T14:55:10.100352
MEAN_MOTION    = 15.75135334
ECCENTRICITY   = .0001621
INCLINATION    = 97.2837
RA_OF_ASC_NODE = 93.1843
ARG_OF_PERICENTER = 92.3542
MEAN_ANOMALY   = 267.7909

EPHEMERIS_TYPE = 0
CLASSIFICATION_TYPE = U
NORAD_CAT_ID   = 67665
ELEMENT_SET_NO = 999
REV_AT_EPOCH   = 412
BSTAR          = .16193E-2
MEAN_MOTION_DOT = .247957E-2
MEAN_MOTION_DDOT = 0

CCSDS_OMM_VERS = 2.0
CREATION_DATE  = 
ORIGINATOR     = 

OBJECT_NAME    = STARLINK-36365
OBJECT_ID      = 2026-022U
CENTER_NAME    = EARTH
REF_FRAME      = TEME
TIME_SYSTEM    = UTC
MEAN_ELEMENT_THEORY = SGP/SGP4

EPOCH          = 2026-02-28T14:53:08.920896
MEAN_MOTION    = 15.75186796
ECCENTRICITY   = .0002831
INCLINATION    = 97.2824
RA_OF_ASC_NODE = 93.1862
ARG_OF_PERICENTER = 100.2120
MEAN_ANOMALY   = 259.9464

EPHEMERIS_TYPE = 0
CLASSIFICATION_TYPE = U
NORAD_CAT_ID   = 67666
ELEMENT_SET_NO = 999
REV_AT_EPOCH   = 412
BSTAR          = .13696E-2
MEAN_MOTION_DOT = .209224E-2
MEAN_MOTION_DDOT = 0

CCSDS_OMM_VERS = 2.0
CREATION_DATE  = 
ORIGINATOR     = 

OBJECT_NAME    = STARLINK-36622
OBJECT_ID      = 2026-022V
CENTER_NAME    = EARTH
REF_FRAME      = TEME
TIME_SYSTEM    = UTC
MEAN_ELEMENT_THEORY = SGP/SGP4

EPOCH          = 2026-02-28T14:50:36.777408
MEAN_MOTION    = 15.75185334
ECCENTRICITY   = .000359
INCLINATION    = 97.2828
RA_OF_ASC_NODE = 93.1876
ARG_OF_PERICENTER = 83.1079
MEAN_ANOMALY   = 277.0594

EPHEMERIS_TYPE = 0
CLASSIFICATION_TYPE = U
NORAD_CAT_ID   = 67667
ELEMENT_SET_NO = 999
REV_AT_EPOCH   = 412
BSTAR          = .14367E-2
MEAN_MOTION_DOT = .219763E-2
MEAN_MOTION_DDOT = 0

CCSDS_OMM_VERS = 2.0
CREATION_DATE  = 
ORIGINATOR     = 

OBJECT_NAME    = STARLINK-36625
OBJECT_ID      = 2026-022W
CENTER_NAME    = EARTH
REF_FRAME      = TEME
TIME_SYSTEM    = UTC
MEAN_ELEMENT_THEORY = SGP/SGP4

EPOCH          = 2026-02-28T14:48:34.633728
MEAN_MOTION    = 15.75208225
ECCENTRICITY   = .0003063
INCLINATION    = 97.2814
RA_OF_ASC_NODE = 93.1891
ARG_OF_PERICENTER = 88.2175
MEAN_ANOMALY   = 271.9441

EPHEMERIS_TYPE = 0
CLASSIFICATION_TYPE = U
NORAD_CAT_ID   = 67668
ELEMENT_SET_NO = 999
REV_AT_EPOCH   = 412
BSTAR          = .15553E-2
MEAN_MOTION_DOT = .238672E-2
MEAN_MOTION_DDOT = 0

CCSDS_OMM_VERS = 2.0
CREATION_DATE  = 
ORIGINATOR     = 

OBJECT_NAME    = STARLINK-36639
OBJECT_ID      = 2026-022X
CENTER_NAME    = EARTH
REF_FRAME      = TEME
TIME_SYSTEM    = UTC
MEAN_ELEMENT_THEORY = SGP/SGP4

EPOCH          = 2026-02-28T14:46:02.338176
MEAN_MOTION    = 15.75198888
ECCENTRICITY   = .0003268
INCLINATION    = 97.2838
RA_OF_ASC_NODE = 93.1921
ARG_OF_PERICENTER = 85.6884
MEAN_ANOMALY   = 274.4754

EPHEMERIS_TYPE = 0
CLASSIFICATION_TYPE = U
NORAD_CAT_ID   = 67669
ELEMENT_SET_NO = 999
REV_AT_EPOCH   = 412
BSTAR          = .11556E-2
MEAN_MOTION_DOT = .175932E-2
MEAN_MOTION_DDOT = 0

CCSDS_OMM_VERS = 2.0
CREATION_DATE  = 
ORIGINATOR     = 

OBJECT_NAME    = STARLINK-36596
OBJECT_ID      = 2026-022Y
CENTER_NAME    = EARTH
REF_FRAME      = TEME
TIME_SYSTEM    = UTC
MEAN_ELEMENT_THEORY = SGP/SGP4

EPOCH          = 2026-02-28T17:46:26.865408
MEAN_MOTION    = 15.75243022
ECCENTRICITY   = .0002133
INCLINATION    = 97.2828
RA_OF_ASC_NODE = 93.3287
ARG_OF_PERICENTER = 67.8132
MEAN_ANOMALY   = 292.3359

EPHEMERIS_TYPE = 0
CLASSIFICATION_TYPE = U
NORAD_CAT_ID   = 67670
ELEMENT_SET_NO = 999
REV_AT_EPOCH   = 414
BSTAR          = .17652E-2
MEAN_MOTION_DOT = .272358E-2
MEAN_MOTION_DDOT = 0

CCSDS_OMM_VERS = 2.0
CREATION_DATE  = 
ORIGINATOR     = 

OBJECT_NAME    = STARLINK-36297
OBJECT_ID      = 2026-022Z
CENTER_NAME    = EARTH
REF_FRAME      = TEME
TIME_SYSTEM    = UTC
MEAN_ELEMENT_THEORY = SGP/SGP4

EPOCH          = 2026-02-28T14:40:26.982624
MEAN_MOTION    = 15.75197332
ECCENTRICITY   = .0003434
INCLINATION    = 97.2813
RA_OF_ASC_NODE = 93.1967
ARG_OF_PERICENTER = 64.8811
MEAN_ANOMALY   = 295.2810

EPHEMERIS_TYPE = 0
CLASSIFICATION_TYPE = U
NORAD_CAT_ID   = 67671
ELEMENT_SET_NO = 999
REV_AT_EPOCH   = 412
BSTAR          = .15783E-2
MEAN_MOTION_DOT = .24219E-2
MEAN_MOTION_DDOT = 0

CCSDS_OMM_VERS = 2.0
CREATION_DATE  = 
ORIGINATOR     = 

OBJECT_NAME    = STARLINK-36616
OBJECT_ID      = 2026-022AA
CENTER_NAME    = EARTH
REF_FRAME      = TEME
TIME_SYSTEM    = UTC
MEAN_ELEMENT_THEORY = SGP/SGP4

EPOCH          = 2026-02-28T19:16:55.157952
MEAN_MOTION    = 15.75146935
ECCENTRICITY   = .0001732
INCLINATION    = 97.2847
RA_OF_ASC_NODE = 93.3959
ARG_OF_PERICENTER = 69.4996
MEAN_ANOMALY   = 290.6455

EPHEMERIS_TYPE = 0
CLASSIFICATION_TYPE = U
NORAD_CAT_ID   = 67672
ELEMENT_SET_NO = 999
REV_AT_EPOCH   = 415
BSTAR          = .66298E-3
MEAN_MOTION_DOT = .99736E-3
MEAN_MOTION_DDOT = 0

CCSDS_OMM_VERS = 2.0
CREATION_DATE  = 
ORIGINATOR     = 

OBJECT_NAME    = COSMOS 2600
OBJECT_ID      = 2026-023A
CENTER_NAME    = EARTH
REF_FRAME      = TEME
TIME_SYSTEM    = UTC
MEAN_ELEMENT_THEORY = SGP/SGP4

EPOCH          = 2026-02-28T07:05:07.618848
MEAN_MOTION    = 15.83528492
ECCENTRICITY   = .0003248
INCLINATION    = 96.6452
RA_OF_ASC_NODE = 135.2352
ARG_OF_PERICENTER = 47.0444
MEAN_ANOMALY   = 313.1099

EPHEMERIS_TYPE = 0
CLASSIFICATION_TYPE = U
NORAD_CAT_ID   = 67674
ELEMENT_SET_NO = 999
REV_AT_EPOCH   = 356
BSTAR          = .32746E-3
MEAN_MOTION_DOT = .71571E-3
MEAN_MOTION_DDOT = 0

CCSDS_OMM_VERS = 2.0
CREATION_DATE  = 
ORIGINATOR     = 

OBJECT_NAME    = 2026-023B
OBJECT_ID      = 2026-023B
CENTER_NAME    = EARTH
REF_FRAME      = TEME
TIME_SYSTEM    = UTC
MEAN_ELEMENT_THEORY = SGP/SGP4

EPOCH          = 2026-02-28T20:23:27.214656
MEAN_MOTION    = 15.22746973
ECCENTRICITY   = .0018951
INCLINATION    = 96.6379
RA_OF_ASC_NODE = 133.8220
ARG_OF_PERICENTER = 161.8697
MEAN_ANOMALY   = 198.3221

EPHEMERIS_TYPE = 0
CLASSIFICATION_TYPE = U
NORAD_CAT_ID   = 67675
ELEMENT_SET_NO = 999
REV_AT_EPOCH   = 351
BSTAR          = .59176E-3
MEAN_MOTION_DOT = .13833E-3
MEAN_MOTION_DDOT = 0

